[{"OBJECT_NAME":"HELIOS 1B","OBJECT_ID":"1999-064A","EPOCH":"2026-04-03T06:18:04.162752","MEAN_MOTION":14.87799296,"ECCENTRICITY":0.00015545,"INCLINATION":98.1672,"RA_OF_ASC_NODE":356.2257,"ARG_OF_PERICENTER":45.0518,"MEAN_ANOMALY":315.0823,"EPHEMERIS_TYPE":0,"CLASSIFICATION_TYPE":"U","NORAD_CAT_ID":25977,"ELEMENT_SET_NO":999,"REV_AT_EPOCH":68891,"BSTAR":0.00036867596,"MEAN_MOTION_DOT":3.309e-5,"MEAN_MOTION_DDOT":0},{"OBJECT_NAME":"TERRA","OBJECT_ID":"1999-068A","EPOCH":"2026-04-03T05:30:05.175648","MEAN_MOTION":14.61042812,"ECCENTRICITY":0.00036618,"INCLINATION":97.9541,"RA_OF_ASC_NODE":145.7202,"ARG_OF_PERICENTER":101.0199,"MEAN_ANOMALY":299.2582,"EPHEMERIS_TYPE":0,"CLASSIFICATION_TYPE":"U","NORAD_CAT_ID":25994,"ELEMENT_SET_NO":999,"REV_AT_EPOCH":39866,"BSTAR":0.000169224,"MEAN_MOTION_DOT":7.86e-6,"MEAN_MOTION_DDOT":0},{"OBJECT_NAME":"SL-16 R/B","OBJECT_ID":"2000-006B","EPOCH":"2026-04-03T05:54:03.840192","MEAN_MOTION":14.15830747,"ECCENTRICITY":0.00153185,"INCLINATION":71.0037,"RA_OF_ASC_NODE":46.2001,"ARG_OF_PERICENTER":151.309,"MEAN_ANOMALY":208.888,"EPHEMERIS_TYPE":0,"CLASSIFICATION_TYPE":"U","NORAD_CAT_ID":26070,"ELEMENT_SET_NO":999,"REV_AT_EPOCH":35203,"BSTAR":0.00011211002,"MEAN_MOTION_DOT":1.73e-6,"MEAN_MOTION_DDOT":0},{"OBJECT_NAME":"TITAN 4B R/B","OBJECT_ID":"2000-047B","EPOCH":"2026-04-03T05:02:33.769248","MEAN_MOTION":15.09794849,"ECCENTRICITY":0.00401941,"INCLINATION":67.9906,"RA_OF_ASC_NODE":331.5509,"ARG_OF_PERICENTER":6.6711,"MEAN_ANOMALY":353.4965,"EPHEMERIS_TYPE":0,"CLASSIFICATION_TYPE":"U","NORAD_CAT_ID":26474,"ELEMENT_SET_NO":999,"REV_AT_EPOCH":39661,"BSTAR":0.00037399505,"MEAN_MOTION_DOT":6.041e-5,"MEAN_MOTION_DDOT":0},{"OBJECT_NAME":"ENVISAT","OBJECT_ID":"2002-009A","EPOCH":"2026-04-03T07:35:18.753792","MEAN_MOTION":14.39046118,"ECCENTRICITY":0.00011998,"INCLINATION":98.377,"RA_OF_ASC_NODE":46.3335,"ARG_OF_PERICENTER":82.3546,"MEAN_ANOMALY":85.8262,"EPHEMERIS_TYPE":0,"CLASSIFICATION_TYPE":"U","NORAD_CAT_ID":27386,"ELEMENT_SET_NO":999,"REV_AT_EPOCH":26271,"BSTAR":8.306832e-5,"MEAN_MOTION_DOT":2.14e-6,"MEAN_MOTION_DDOT":0},{"OBJECT_NAME":"IDEFIX & ARIANE 42P R/B","OBJECT_ID":"2002-021B","EPOCH":"2026-04-03T05:56:13.868736","MEAN_MOTION":14.31044036,"ECCENTRICITY":0.00128422,"INCLINATION":98.5899,"RA_OF_ASC_NODE":31.5644,"ARG_OF_PERICENTER":112.7016,"MEAN_ANOMALY":247.5526,"EPHEMERIS_TYPE":0,"CLASSIFICATION_TYPE":"U","NORAD_CAT_ID":27422,"ELEMENT_SET_NO":999,"REV_AT_EPOCH":24753,"BSTAR":0.00019554075,"MEAN_MOTION_DOT":4.72e-6,"MEAN_MOTION_DDOT":0},{"OBJECT_NAME":"AQUA","OBJECT_ID":"2002-022A","EPOCH":"2026-04-03T08:12:18.552960","MEAN_MOTION":14.62037672,"ECCENTRICITY":0.00013486,"INCLINATION":98.4217,"RA_OF_ASC_NODE":61.1638,"ARG_OF_PERICENTER":115.789,"MEAN_ANOMALY":45.5803,"EPHEMERIS_TYPE":0,"CLASSIFICATION_TYPE":"U","NORAD_CAT_ID":27424,"ELEMENT_SET_NO":999,"REV_AT_EPOCH":27233,"BSTAR":0.00034565387,"MEAN_MOTION_DOT":1.685e-5,"MEAN_MOTION_DDOT":0},{"OBJECT_NAME":"CZ-4B R/B","OBJECT_ID":"2002-024C","EPOCH":"2026-04-03T02:53:36.254400","MEAN_MOTION":14.14552228,"ECCENTRICITY":0.00492989,"INCLINATION":98.8784,"RA_OF_ASC_NODE":146.3983,"ARG_OF_PERICENTER":314.4707,"MEAN_ANOMALY":99.4173,"EPHEMERIS_TYPE":0,"CLASSIFICATION_TYPE":"U","NORAD_CAT_ID":27432,"ELEMENT_SET_NO":999,"REV_AT_EPOCH":23269,"BSTAR":6.5335777e-5,"MEAN_MOTION_DOT":8.2e-7,"MEAN_MOTION_DDOT":0},{"OBJECT_NAME":"MIDORI II (ADEOS-II)","OBJECT_ID":"2002-056A","EPOCH":"2026-04-03T07:19:29.915040","MEAN_MOTION":14.29305211,"ECCENTRICITY":4.514e-5,"INCLINATION":98.7813,"RA_OF_ASC_NODE":51.9596,"ARG_OF_PERICENTER":21.2265,"MEAN_ANOMALY":338.8935,"EPHEMERIS_TYPE":0,"CLASSIFICATION_TYPE":"U","NORAD_CAT_ID":27597,"ELEMENT_SET_NO":999,"REV_AT_EPOCH":21381,"BSTAR":0.00022471632,"MEAN_MOTION_DOT":5.27e-6,"MEAN_MOTION_DDOT":0},{"OBJECT_NAME":"H-2A R/B","OBJECT_ID":"2002-056E","EPOCH":"2026-04-03T02:57:28.507968","MEAN_MOTION":14.3377873,"ECCENTRICITY":0.00714339,"INCLINATION":98.3247,"RA_OF_ASC_NODE":52.565,"ARG_OF_PERICENTER":88.7893,"MEAN_ANOMALY":284.0043,"EPHEMERIS_TYPE":0,"CLASSIFICATION_TYPE":"U","NORAD_CAT_ID":27601,"ELEMENT_SET_NO":999,"REV_AT_EPOCH":21761,"BSTAR":0.00018828683,"MEAN_MOTION_DOT":4.97e-6,"MEAN_MOTION_DDOT":0},{"OBJECT_NAME":"CZ-4B R/B","OBJECT_ID":"2003-049C","EPOCH":"2026-04-03T00:03:15.966432","MEAN_MOTION":14.55043337,"ECCENTRICITY":0.00486001,"INCLINATION":98.6896,"RA_OF_ASC_NODE":88.8649,"ARG_OF_PERICENTER":156.2598,"MEAN_ANOMALY":204.0855,"EPHEMERIS_TYPE":0,"CLASSIFICATION_TYPE":"U","NORAD_CAT_ID":28059,"ELEMENT_SET_NO":999,"REV_AT_EPOCH":19013,"BSTAR":0.0001426486,"MEAN_MOTION_DOT":5.73e-6,"MEAN_MOTION_DDOT":0},{"OBJECT_NAME":"CZ-2C R/B","OBJECT_ID":"2004-012C","EPOCH":"2026-04-03T03:30:49.163904","MEAN_MOTION":15.67640025,"ECCENTRICITY":0.00135992,"INCLINATION":97.7169,"RA_OF_ASC_NODE":160.8052,"ARG_OF_PERICENTER":213.4051,"MEAN_ANOMALY":146.6352,"EPHEMERIS_TYPE":0,"CLASSIFICATION_TYPE":"U","NORAD_CAT_ID":28222,"ELEMENT_SET_NO":999,"REV_AT_EPOCH":20810,"BSTAR":0.00077609172,"MEAN_MOTION_DOT":0.00085576,"MEAN_MOTION_DDOT":0},{"OBJECT_NAME":"SL-16 R/B","OBJECT_ID":"2004-021B","EPOCH":"2026-04-03T06:39:06.686208","MEAN_MOTION":14.14598973,"ECCENTRICITY":0.00053239,"INCLINATION":71.0012,"RA_OF_ASC_NODE":180.8955,"ARG_OF_PERICENTER":339.1001,"MEAN_ANOMALY":20.9903,"EPHEMERIS_TYPE":0,"CLASSIFICATION_TYPE":"U","NORAD_CAT_ID":28353,"ELEMENT_SET_NO":999,"REV_AT_EPOCH":12631,"BSTAR":0.0002286048,"MEAN_MOTION_DOT":3.92e-6,"MEAN_MOTION_DDOT":0},{"OBJECT_NAME":"CZ-4B R/B","OBJECT_ID":"2004-035C","EPOCH":"2026-04-03T02:51:42.637536","MEAN_MOTION":15.29509963,"ECCENTRICITY":0.00302297,"INCLINATION":97.345,"RA_OF_ASC_NODE":127.0706,"ARG_OF_PERICENTER":240.0544,"MEAN_ANOMALY":119.7694,"EPHEMERIS_TYPE":0,"CLASSIFICATION_TYPE":"U","NORAD_CAT_ID":28415,"ELEMENT_SET_NO":999,"REV_AT_EPOCH":18364,"BSTAR":0.0005091973,"MEAN_MOTION_DOT":0.00014703,"MEAN_MOTION_DDOT":0},{"OBJECT_NAME":"CZ-2C R/B","OBJECT_ID":"2004-046B","EPOCH":"2026-04-03T07:22:38.461440","MEAN_MOTION":14.27002008,"ECCENTRICITY":0.0140643,"INCLINATION":98.1977,"RA_OF_ASC_NODE":6.7574,"ARG_OF_PERICENTER":82.1436,"MEAN_ANOMALY":279.5684,"EPHEMERIS_TYPE":0,"CLASSIFICATION_TYPE":"U","NORAD_CAT_ID":28480,"ELEMENT_SET_NO":999,"REV_AT_EPOCH":11201,"BSTAR":0.00011869709,"MEAN_MOTION_DOT":2.81e-6,"MEAN_MOTION_DDOT":0},{"OBJECT_NAME":"ARIANE 5 R/B","OBJECT_ID":"2004-049H","EPOCH":"2026-04-03T05:19:20.672256","MEAN_MOTION":14.85315541,"ECCENTRICITY":0.00828171,"INCLINATION":98.2662,"RA_OF_ASC_NODE":262.6036,"ARG_OF_PERICENTER":271.6083,"MEAN_ANOMALY":87.5646,"EPHEMERIS_TYPE":0,"CLASSIFICATION_TYPE":"U","NORAD_CAT_ID":28499,"ELEMENT_SET_NO":999,"REV_AT_EPOCH":14943,"BSTAR":0.00017120666,"MEAN_MOTION_DOT":1.498e-5,"MEAN_MOTION_DDOT":0},{"OBJECT_NAME":"CZ-2D R/B","OBJECT_ID":"2005-024B","EPOCH":"2026-04-03T03:05:29.810400","MEAN_MOTION":15.62509279,"ECCENTRICITY":0.00017695,"INCLINATION":97.3566,"RA_OF_ASC_NODE":109.21,"ARG_OF_PERICENTER":291.2562,"MEAN_ANOMALY":68.8507,"EPHEMERIS_TYPE":0,"CLASSIFICATION_TYPE":"U","NORAD_CAT_ID":28738,"ELEMENT_SET_NO":999,"REV_AT_EPOCH":14359,"BSTAR":0.00080926334,"MEAN_MOTION_DOT":0.00072373,"MEAN_MOTION_DDOT":0}]
